# From MPC 81470
P/2012 O1 (McNaught),e,7.4277,91.9508,238.3029,3.542388,0.1478291,0.59382538,267.1623,02/12.0/2024,2000,g 17.5,4.0
# From MPC 80899
P/2012 O2 (McNaught),e,24.4619,120.6768,183.4581,3.627819,0.1426381,0.53142295,248.8124,02/12.0/2024,2000,g 17.0,4.0
# From MPC 82320
P/2012 T2 (PANSTARRS),e,12.5704,73.8815,310.9143,5.722819,0.0719928,0.16249766,282.8681,02/12.0/2024,2000,g 10.0,4.0
# From MPC 80900
P/2012 T3 (PANSTARRS),e,9.5568,114.3542,195.5209,6.153357,0.0645708,0.61602441,277.6960,02/12.0/2024,2000,g 15.0,4.0
# From MPC 82720
P/2012 U2 (PANSTARRS),e,10.7625,185.3267,228.3232,7.128054,0.0517902,0.50055588,212.3079,02/12.0/2024,2000,g 12.5,4.0
# From MPC 84024
P/2012 US27 (Siding Spring),e,39.3665,49.2292,0.8468,5.162683,0.0840216,0.64843447,338.8118,02/12.0/2024,2000,g 13.5,4.0
# From MPC 82721
P/2012 WA34 (Lemmon-PANSTARRS),e,6.0789,93.7402,356.4981,4.677840,0.0974173,0.34341378,21.2317,02/12.0/2024,2000,g 13.5,4.0
# From MPC 82721
P/2013 AL76 (Catalina),e,144.8827,146.0311,27.0623,6.500769,0.0594644,0.68592746,243.3303,02/12.0/2024,2000,g 16.0,4.0
# From MPC 91612
P/2013 G1 (Kowalski),e,5.4569,221.3111,51.4903,6.902430,0.0543502,0.51023275,202.3544,02/12.0/2024,2000,g 11.0,4.0
# From MPC 84025
P/2013 G4 (PANSTARRS),e,5.9176,339.5948,214.5864,4.435172,0.1055209,0.40904343,63.6270,02/12.0/2024,2000,g 15.0,4.0
# From MPC 91613
P/2013 J2 (McNaught),e,15.5074,289.3374,37.8718,6.225124,0.0634574,0.65661390,242.2380,02/12.0/2024,2000,g 13.0,4.0
# From MPC 86229
P/2013 N3 (PANSTARRS),e,2.1703,17.5396,323.9471,7.399888,0.0489628,0.59213108,178.5495,02/12.0/2024,2000,g 13.0,4.0
# From MPC 85834
P/2013 N5 (PANSTARRS),e,23.4458,187.1724,176.9538,6.797329,0.0556156,0.73220115,215.1658,02/12.0/2024,2000,g 17.0,4.0
# From MPC 85834
P/2013 P1 (PANSTARRS),e,18.7061,160.6408,138.2312,8.588363,0.0391596,0.60339954,156.8646,02/12.0/2024,2000,g 12.0,4.0
# From MPEC 2022-V95
P/2013 R3 (Catalina-PANSTARRS),e,0.8650,342.0422,11.2947,3.030942,0.1867832,0.27556623,352.9837,02/12.0/2024,2000,g 14.0,4.0
# From unp
P/2013 R3-A (Catalina-PANSTARRS),e,0.8641,341.9971,11.3735,3.030700,0.1868055,0.27549776,353.0526,02/12.0/2024,2000,g  9.0,4.0
# From MPEC 2015-M77
P/2013 R3-B (Catalina-PANSTARRS),e,0.8654,342.0530,11.3084,3.030916,0.1867855,0.27554239,352.9792,02/12.0/2024,2000,g  9.0,4.0
# From MPC 85835
P/2013 T1 (PANSTARRS),e,24.2883,10.1055,346.1715,5.855184,0.0695654,0.62404598,266.9006,02/12.0/2024,2000,g 16.5,4.0
# From MPC 86643
P/2013 T2 (Schwartz),e,9.4521,0.8205,345.5807,3.492722,0.1509934,0.50061713,231.6396,02/12.0/2024,2000,g 16.0,4.0
# From MPC 91613
P/2013 W1 (PANSTARRS),e,4.6982,117.8297,1.2225,3.486261,0.1514133,0.59338267,189.1768,02/12.0/2024,2000,g 17.5,4.0
# From MPC101095
P/2013 YG46 (Spacewatch),e,7.8570,48.8444,242.7074,3.280583,0.1658737,0.45587806,66.5460,02/12.0/2024,2000,g 10.0,4.0
# From MPC 89728
P/2014 A2 (Hill),e,24.5569,106.6491,356.1493,5.925227,0.0683355,0.64629828,258.0140,02/12.0/2024,2000,g 15.0,4.0
# From MPEC 2024-C04
P/2014 A3 (PANSTARRS),e,13.7175,229.9779,214.2375,4.607424,0.0996591,0.24637983,29.4132,02/12.0/2024,2000,g 12.0,4.0
# From MPC102095
P/2014 C1 (TOTAS),e,2.6919,167.8823,24.0142,3.028929,0.1869693,0.45188860,328.9826,02/12.0/2024,2000,g 15.5,4.0
# From MPEC 2022-WD2
C/2014 F3 (Sheppard-Trujillo),e,6.5220,326.0438,4.9956,14.44326,0.0179559,0.60388841,17.7614,02/12.0/2024,2000,g  6.0,4.0
# From MPC 98560
P/2014 L2 (NEOWISE),e,5.1963,149.3580,182.7151,6.307909,0.0622123,0.64711953,217.2980,02/12.0/2024,2000,g 12.0,4.0
# From MPC 90769
P/2014 L3 (Hill),e,6.2622,115.5223,178.6922,8.181914,0.0421135,0.77176836,148.1156,02/12.0/2024,2000,g 16.0,4.0
# From MPC 91614
P/2014 M4 (PANSTARRS),e,3.3451,263.2071,148.0707,5.865399,0.0693837,0.59607655,230.8737,02/12.0/2024,2000,g 15.0,4.0
# From MPEC 2022-K19
P/2014 MG4 (Spacewatch-PANSTARRS),e,9.3646,311.7033,298.9667,5.014246,0.0877800,0.25875824,341.7399,02/12.0/2024,2000,g  9.5,4.0
# From MPC 98560
P/2014 O3 (PANSTARRS),e,7.7908,87.6300,204.7835,7.582916,0.0472008,0.38320731,169.5764,02/12.0/2024,2000,g 10.5,4.0
# From MPEC 2024-A43
C/2014 OG392 (PANSTARRS),e,9.0327,145.8192,254.8027,12.25955,0.0229611,0.18637652,17.9791,02/12.0/2024,2000,g  6.0,4.0
# From MPC 91616
P/2014 U4 (PANSTARRS),e,6.4266,11.9242,347.8498,3.510572,0.1498433,0.46440064,163.8528,02/12.0/2024,2000,g 18.0,4.0
# From MPEC 2024-BE0
C/2014 UN271 (Bernardinelli-Bernstein),h,01/18.4968/2031,95.4353,189.9142,326.1378,1.002950,10.955111,2000,2.5,3.2
# From MPC 95211
P/2014 V1 (PANSTARRS),e,22.5147,166.2101,177.6620,5.479673,0.0768373,0.53397651,253.6658,02/12.0/2024,2000,g 14.0,4.0
# From MPC105542
P/2014 W4 (PANSTARRS),e,15.2866,33.3419,67.6338,6.583497,0.0583471,0.35438180,172.8132,02/12.0/2024,2000,g 11.0,4.0
# From MPC 94281
P/2014 X1 (Elenin),e,26.0531,61.5560,33.8965,6.201635,0.0638182,0.71039032,212.2600,02/12.0/2024,2000,g 15.0,4.0
# From MPC 92275
P/2015 A3 (PANSTARRS),e,172.5479,277.4252,249.5885,7.817686,0.0450907,0.85032482,147.8773,02/12.0/2024,2000,g 20.0,4.0
# From MPC 99270
P/2015 B1 (PANSTARRS),e,18.0695,352.8814,188.7702,9.482329,0.0337545,0.36632840,103.9812,02/12.0/2024,2000,g  8.5,4.0
# From MPC109141
P/2015 B4 (Lemmon-PANSTARRS),e,1.7662,266.1076,227.1369,8.509463,0.0397055,0.56156236,130.8072,02/12.0/2024,2000,g 11.0,4.0
# From MPC101096
P/2015 C1 (TOTAS-Gibbs),e,13.9436,348.7866,178.0140,6.565841,0.0585826,0.56298099,188.4130,02/12.0/2024,2000,g 12.5,4.0
# From MPC109141
P/2015 D5 (Kowalski),e,20.5494,74.0856,39.5995,8.947245,0.0368273,0.49103141,132.5823,02/12.0/2024,2000,g  9.0,4.0
# From MPC 96866
P/2015 D6 (Lemmon-PANSTARRS),e,20.2221,45.7425,124.9601,7.129365,0.0517759,0.36214498,163.2995,02/12.0/2024,2000,g 10.5,4.0
# From MPEC 2024-C04
P/2015 HG16 (PANSTARRS),e,19.0079,57.0607,46.7570,4.796376,0.0938284,0.34885395,336.7667,02/12.0/2024,2000,g 12.5,4.0
# From MPC 95213
P/2015 K5 (PANSTARRS),e,39.9359,134.2671,106.2179,6.727617,0.0564823,0.55145782,179.7599,02/12.0/2024,2000,g 13.5,4.0
# From MPC107684
P/2015 M2 (PANSTARRS),e,3.9681,86.7020,225.9483,7.250493,0.0504839,0.17858669,155.3562,02/12.0/2024,2000,g  8.5,4.0
# From MPC 99819
P/2015 P4 (PANSTARRS),e,8.7201,104.7140,280.6822,6.046888,0.0662836,0.58567398,194.8227,02/12.0/2024,2000,g 14.0,4.0
# From MPEC 2022-K19
P/2015 PD229 (Cameron-ISON),e,2.0229,342.7312,352.7197,7.200167,0.0510141,0.32642198,158.2601,02/12.0/2024,2000,g 11.5,2.0
# From MPC 96867
P/2015 Q2 (Pimentel),e,146.5599,228.5616,244.6799,7.352124,0.0494407,0.75127715,152.1129,02/12.0/2024,2000,g 15.5,4.0
# From MPC 98562
P/2015 R1 (PANSTARRS),e,22.6887,48.3745,300.5519,5.881933,0.0690914,0.63373746,217.4653,02/12.0/2024,2000,g 14.0,4.0
# From MPC 95734
P/2015 R2 (PANSTARRS),e,15.4812,168.6116,149.8605,4.483360,0.1038242,0.45243196,328.0550,02/12.0/2024,2000,g 14.5,4.0
# From MPC102953
P/2015 TO19 (Lemmon-PANSTARRS),e,6.5040,321.6619,89.2486,4.549086,0.1015822,0.35968427,293.9521,02/12.0/2024,2000,g 14.0,4.0
# From MPC110080
P/2015 TP200 (LINEAR),e,8.7823,6.9780,82.4754,7.262340,0.0503604,0.53702152,133.9367,02/12.0/2024,2000,g 11.0,4.0
# From MPC101098
P/2015 W2 (Catalina),e,11.6147,294.1421,117.5956,7.291174,0.0500620,0.63558525,152.6893,02/12.0/2024,2000,g 13.0,4.0
# From MPEC 2023-J29
P/2015 X3 (PANSTARRS),e,24.4202,77.2560,306.9107,5.001127,0.0881256,0.44011299,273.2673,02/12.0/2024,2000,g 15.0,4.0
# From MPC115881
P/2015 X6 (PANSTARRS),e,4.5654,106.9382,329.8272,2.751331,0.2159682,0.17355627,261.7687,02/12.0/2024,2000,g 16.0,4.0
# From MPC100282
P/2016 A2 (Christensen),e,26.4052,291.5951,141.3278,4.753535,0.0950997,0.27125967,301.1400,02/12.0/2024,2000,g 11.5,4.0
# From MPEC 2022-OB6
P/2016 A3 (PANSTARRS),e,8.5142,187.1837,340.8297,7.873157,0.0446150,0.38632718,110.8149,02/12.0/2024,2000,g 10.0,4.0
# From MPC102098
P/2016 A7 (PANSTARRS),e,16.6083,221.4613,352.4763,5.036499,0.0871989,0.56576146,254.6343,02/12.0/2024,2000,g 16.0,4.0
# From MPEC 2021-P47
P/2016 G1 (PANSTARRS),e,10.9709,204.0169,111.1212,2.583794,0.2373107,0.21027264,251.0304,02/12.0/2024,2000,g 14.0,4.0
# From MPEC 2017-D91
P/2016 J1-A (PANSTARRS),e,14.3174,199.9131,47.6312,3.181157,0.1737107,0.22684949,124.9483,02/12.0/2024,2000,g 16.5,4.0
# From MPEC 2017-A77
P/2016 J1-B (PANSTARRS),e,14.3202,199.9184,47.5229,3.180797,0.1737401,0.22669419,125.1067,02/12.0/2024,2000,g 17.0,4.0
# From MPEC 2024-C04
C/2016 J2 (Denneau),h,04/13.8292/2016,130.3293,186.4530,318.4369,1.000588,1.499480,2000,17.0,4.0
# From MPC102099
P/2016 P1 (PANSTARRS),e,24.3824,319.4761,270.6072,3.201722,0.1720397,0.28848813,167.9123,02/12.0/2024,2000,g 15.0,4.0
# From MPEC 2023-R20
C/2016 Q2 (PANSTARRS),h,05/12.3473/2021,109.3614,322.3306,84.5538,1.003245,7.081090,2000,6.0,4.0
# From MPEC 2022-K19
P/2016 R4 (Gibbs),e,10.8724,168.2834,174.1305,5.334552,0.0799939,0.47555443,220.7092,02/12.0/2024,2000,g 12.5,4.0
# From MPC105543
P/2016 S1 (PANSTARRS),e,94.7395,227.6771,273.2102,8.271636,0.0414302,0.71113665,104.4697,02/12.0/2024,2000,g 12.0,4.0
# From MPC106345
P/2016 WM48 (Lemmon),e,117.6295,59.9515,36.1727,8.172709,0.0421847,0.78365334,107.2837,02/12.0/2024,2000,g 15.0,4.0
# From MPEC 2021-P47
C/2016 X1 (Lemmon),e,26.4664,256.3105,224.5231,1725,0.0000138,0.99562063,0.0000,04/28.8270/2019,2000,g  6.0,4.0
# From MPEC 2022-OB6
C/2017 B3 (LINEAR),e,54.1770,2.1922,284.8274,8364,0.0000013,0.99952972,0.0000,01/31.2950/2019,2000,g  6.0,4.0
# From MPC103847
P/2017 B4 (PANSTARRS),e,20.0584,121.4578,11.0197,4.410520,0.1064068,0.36495152,359.9130,01/05.0/2017,2000,g 14.5,4.0
# From MPEC 2022-OB6
P/2017 D1 (Fuls),e,20.7720,82.1988,7.9844,4.825571,0.0929782,0.43754165,259.2193,02/12.0/2024,2000,g 14.0,4.0
# From MPEC 2022-OB6
P/2017 D4 (PANSTARRS),e,10.5559,264.9032,212.1315,7.544163,0.0475650,0.62986394,129.0779,02/12.0/2024,2000,g 13.0,4.0
# From MPEC 2024-C04
P/2017 G1 (PANSTARRS),e,5.1544,247.1317,225.2401,7.194836,0.0510708,0.65011861,145.8909,02/12.0/2024,2000,g 13.5,4.0
# From MPC108595
